SL-4 R/B                
1 39679U 14021B   26030.76043624  .00014203  00000+0  32550-3 0  9992
2 39679  51.6064 162.1361 0099021 324.6731  34.7718 15.37996216650432
ALOS-2                  
1 39766U 14029A   26031.25029372  .00000512  00000+0  75482-4 0  9996
2 39766  97.9226 130.3851 0001512  98.3103 261.8280 14.79474589631333
YAOGAN-29               
1 41038U 15069A   26031.21193128  .00000364  00000+0  51511-4 0  9995
2 41038  98.0187  59.5352 0002813  99.7804 260.3727 14.82949483550325
ASTRO-H (HITOMI)        
1 41337U 16012A   26030.88590962  .00003431  00000+0  20176-3 0  9995
2 41337  30.9982 240.4542 0009930 312.9190  47.0614 15.09722402546513
HXMT (HUIYAN)           
1 42758U 17034A   26030.98898841  .00004967  00000+0  25577-3 0  9991
2 42758  43.0123 226.1936 0032111 353.9058   6.1395 15.16958971476813
CZ-2C R/B               
1 43521U 18054D   26030.80031775  .00271544  27701-4  83308-3 0  9994
2 43521  35.1289 204.8272 0013515 294.9521  64.9813 15.90634628422820
SAOCOM 1A               
1 43641U 18076A   26031.15708802  .00001249  00000+0  16345-3 0  9990
2 43641  97.8863 219.8626 0001403  86.1998 273.9376 14.82148615395806
H-2A R/B                
1 43682U 18084L   26031.12402743  .00018827  00000+0  47362-3 0  9999
2 43682  98.8761 240.5298 0026153 152.2332 208.0311 15.39664981399995
SAOCOM 1B               
1 46265U 20059A   26031.18836513  .00000390  00000+0  55549-4 0  9999
2 46265  97.8859 218.9918 0001319  84.3297 275.8066 14.82151594293194
CSS (TIANHE)            
1 48274U 21035A   26030.17114424  .00032690  00000+0  37481-3 0  9996
2 48274  41.4674  82.2287 0009086  36.5911 323.5548 15.61350410271590
COSMOS 2550             
1 48865U 21056A   26026.13240542 -.00000181  00000+0  32270-6 0  9992
2 48865  67.1441 169.6578 0008309 269.8947  90.1255 15.33840202256938
CZ-2C R/B               
1 52794U 22058K   26030.99705271  .00026037  00000+0  42074-3 0  9992
2 52794  50.1887 151.7885 0042453  41.2385 319.1778 15.51611908204272
